[{"OBJECT_NAME":"SHIYAN-27 B","OBJECT_ID":"2025-078B","EPOCH":"2026-03-09T23:40:17.469984","MEAN_MOTION":13.57241479,"ECCENTRICITY":7.406e-5,"INCLINATION":99.6953,"RA_OF_ASC_NODE":77.6552,"ARG_OF_PERICENTER":95.0681,"MEAN_ANOMALY":265.0542,"EPHEMERIS_TYPE":0,"CLASSIFICATION_TYPE":"U","NORAD_CAT_ID":63600,"ELEMENT_SET_NO":999,"REV_AT_EPOCH":4407,"BSTAR":8.3556223e-5,"MEAN_MOTION_DOT":1.5e-7,"MEAN_MOTION_DDOT":0},{"OBJECT_NAME":"SL-16 DEB","OBJECT_ID":"1993-059D","EPOCH":"2026-03-09T16:28:35.333184","MEAN_MOTION":13.70701069,"ECCENTRICITY":0.02130185,"INCLINATION":70.9716,"RA_OF_ASC_NODE":62.9116,"ARG_OF_PERICENTER":342.5327,"MEAN_ANOMALY":125.6025,"EPHEMERIS_TYPE":0,"CLASSIFICATION_TYPE":"U","NORAD_CAT_ID":22805,"ELEMENT_SET_NO":999,"REV_AT_EPOCH":62372,"BSTAR":0.00013973487,"MEAN_MOTION_DOT":1.03e-6,"MEAN_MOTION_DDOT":0}]
